25162,GLOBALSTAR M001,1998,116.3,-1.0,-,52.0,Inactive,0,LEO,USA,Globalstar,Unknown,Unknown,Unknown,1 25162U 98008A   24174.83479528 -.00000033  00000+0  49066-3 0  9999,2 25162  52.0046 299.1295 0001777 187.3078 338.4048 12.38186633199198,12.38186633,0.0001777,LEO
25163,GLOBALSTAR M004,1998,113.98,-1.0,-,52.0,Inactive,0,LEO,USA,Globalstar,Unknown,Unknown,Unknown,1 25163U 98008B   24174.90028352 -.00000067  00000+0  20548-3 0  9994,2 25163  52.0007  70.2236 0002378 205.2647 235.3964 12.63363024216370,12.63363024,0.0002378,LEO
25164,GLOBALSTAR M002,1998,123.98,-1.0,-,52.0,Inactive,0,LEO,USA,Globalstar,Unknown,Unknown,Unknown,1 25164U 98008C   24175.13281246 -.00000069  00000+0  14424-3 0  9992,2 25164  52.0030  60.4672 0000708 184.9802 175.1011 11.61502566142413,11.61502566,7.08e-05,LEO
25165,GLOBALSTAR M003,1998,118.81,-1.0,-,51.99,Inactive,0,LEO,USA,Globalstar,Unknown,Unknown,Unknown,1 25165U 98008D   24175.16284476  .00000064  00000+0  16314-2 0  9997,2 25165  51.9892  82.8752 0007577 293.8990 214.6343 12.12012985189779,12.12012985,0.0007577,LEO
25306,GLOBALSTAR M014,1998,123.56,-1.0,-,51.99,Inactive,0,LEO,USA,Globalstar,Unknown,Unknown,Unknown,1 25306U 98023A   24174.96671189 -.00000054  00000+0  44877-3 0  9995,2 25306  51.9864 351.6612 0001627  77.9187  84.1445 11.65468812149282,11.65468812,0.0001627,LEO
25307,GLOBALSTAR M006,1998,124.33,-1.0,-,52.0,Inactive,0,LEO,USA,Globalstar,Unknown,Unknown,Unknown,1 25307U 98023B   24174.94373187 -.00000137  00000+0 -12507-2 0  9998,2 25307  51.9962  30.7654 0003730 165.7195 334.1187 11.58163965175200,11.58163965,0.000373,LEO
25308,GLOBALSTAR M015,1998,125.34,-1.0,-,51.98,Inactive,0,LEO,USA,Globalstar,Unknown,Unknown,Unknown,1 25308U 98023C   24174.88315757 -.00000089  00000+0 -36487-3 0  9991,2 25308  51.9814 112.9180 0012186 156.8752 237.0075 11.48853063152788,11.48853063,0.0012186,LEO
25309,GLOBALSTAR M008,1998,116.5,-1.0,-,51.99,Inactive,0,LEO,USA,Globalstar,Unknown,Unknown,Unknown,1 25309U 98023D   24174.94482913 -.00000098  00000+0 -12033-4 0  9990,2 25309  51.9942 159.5681 0002378 136.8692 240.9520 12.36044649193421,12.36044649,0.0002378,LEO
